[{"OBJECT_NAME":"STARLINK-5313","OBJECT_ID":"2023-010AW","EPOCH":"2026-03-09T23:18:47.650176","MEAN_MOTION":14.98330211,"ECCENTRICITY":0.00027416,"INCLINATION":70.0013,"RA_OF_ASC_NODE":3.7787,"ARG_OF_PERICENTER":268.6791,"MEAN_ANOMALY":91.4054,"EPHEMERIS_TYPE":0,"CLASSIFICATION_TYPE":"U","NORAD_CAT_ID":55313,"ELEMENT_SET_NO":999,"REV_AT_EPOCH":17468,"BSTAR":-1.3585395e-5,"MEAN_MOTION_DOT":-2.55e-6,"MEAN_MOTION_DDOT":0},{"OBJECT_NAME":"EZIE-B","OBJECT_ID":"2025-052AS","EPOCH":"2026-03-09T23:09:37.705536","MEAN_MOTION":14.96286279,"ECCENTRICITY":0.00040038,"INCLINATION":97.7009,"RA_OF_ASC_NODE":322.7783,"ARG_OF_PERICENTER":146.8572,"MEAN_ANOMALY":213.2901,"EPHEMERIS_TYPE":0,"CLASSIFICATION_TYPE":"U","NORAD_CAT_ID":63250,"ELEMENT_SET_NO":999,"REV_AT_EPOCH":5382,"BSTAR":0.00063815223,"MEAN_MOTION_DOT":7.158e-5,"MEAN_MOTION_DDOT":0}]
